{
  "type": "FeatureCollection",
  "features": [
    {
      "type": "Feature",
      "properties": {
        "norad_id": 36036,
        "name": "SMOS",
        "group": "resource",
        "lat": 80.68949996269336,
        "lon": 98.69118851468146,
        "alt_km": 751.0586989479871,
        "timestamp": "2025-12-04T09:47:37.179435+00:00",
        "meta_object_name": "SMOS",
        "meta_object_id": "2009-059A",
        "meta_epoch": "2025-12-03T11:42:47.292768",
        "meta_mean_motion": 14.39788746,
        "meta_eccentricity": 0.00010256,
        "meta_inclination": 98.4384,
        "meta_ra_of_asc_node": 162.673,
        "meta_arg_of_pericenter": 72.1979,
        "meta_mean_anomaly": 287.9321,
        "meta_ephemeris_type": 0,
        "meta_classification_type": "U",
        "meta_norad_cat_id": 36036,
        "meta_element_set_no": 999,
        "meta_rev_at_epoch": 84529,
        "meta_bstar": 0.00020750236,
        "meta_mean_motion_dot": 6.07e-06,
        "meta_mean_motion_ddot": 0,
        "tle_line1": "1 36036U 09059A   25337.48804737  .00000607  00000+0  20750-3 0  9991",
        "tle_line2": "2 36036  98.4384 162.6730 0001025  72.1979 287.9321 14.39788746845291"
      },
      "geometry": {
        "type": "Point",
        "coordinates": [
          98.69118851468146,
          80.68949996269336
        ]
      }
    },
    {
      "type": "Feature",
      "properties": {
        "norad_id": 36110,
        "name": "YAOGAN-7",
        "group": "resource",
        "lat": -33.08609688406928,
        "lon": 34.91685928991858,
        "alt_km": 644.4616430603828,
        "timestamp": "2025-12-04T09:47:37.179445+00:00",
        "meta_object_name": "YAOGAN-7",
        "meta_object_id": "2009-069A",
        "meta_epoch": "2025-12-04T03:57:12.938112",
        "meta_mean_motion": 14.77712701,
        "meta_eccentricity": 0.0023749,
        "meta_inclination": 98.0303,
        "meta_ra_of_asc_node": 219.9521,
        "meta_arg_of_pericenter": 310.28,
        "meta_mean_anomaly": 49.6334,
        "meta_ephemeris_type": 0,
        "meta_classification_type": "U",
        "meta_norad_cat_id": 36110,
        "meta_element_set_no": 999,
        "meta_rev_at_epoch": 86082,
        "meta_bstar": 0.00019969,
        "meta_mean_motion_dot": 1.384e-05,
        "meta_mean_motion_ddot": 0,
        "tle_line1": "1 36110U 09069A   25338.16473308  .00001384  00000+0  19969-3 0  9990",
        "tle_line2": "2 36110  98.0303 219.9521 0023749 310.2800  49.6334 14.77712701860824"
      },
      "geometry": {
        "type": "Point",
        "coordinates": [
          34.91685928991858,
          -33.08609688406928
        ]
      }
    },
    {
      "type": "Feature",
      "properties": {
        "norad_id": 36605,
        "name": "TANDEM-X",
        "group": "resource",
        "lat": -60.24720322337253,
        "lon": -2.866928748759874,
        "alt_km": 516.6289322225575,
        "timestamp": "2025-12-04T09:47:37.179455+00:00",
        "meta_object_name": "TANDEM-X",
        "meta_object_id": "2010-030A",
        "meta_epoch": "2025-12-03T15:05:32.620128",
        "meta_mean_motion": 15.19160106,
        "meta_eccentricity": 0.00017772,
        "meta_inclination": 97.4443,
        "meta_ra_of_asc_node": 343.1419,
        "meta_arg_of_pericenter": 93.6994,
        "meta_mean_anomaly": 266.4444,
        "meta_ephemeris_type": 0,
        "meta_classification_type": "U",
        "meta_norad_cat_id": 36605,
        "meta_element_set_no": 999,
        "meta_rev_at_epoch": 85695,
        "meta_bstar": 0.00010004139,
        "meta_mean_motion_dot": 2.035e-05,
        "meta_mean_motion_ddot": 0,
        "tle_line1": "1 36605U 10030A   25337.62884977  .00002035  00000+0  10004-3 0  9992",
        "tle_line2": "2 36605  97.4443 343.1419 0001777  93.6994 266.4444 15.19160106856953"
      },
      "geometry": {
        "type": "Point",
        "coordinates": [
          -2.866928748759874,
          -60.24720322337253
        ]
      }
    },
    {
      "type": "Feature",
      "properties": {
        "norad_id": 36795,
        "name": "CARTOSAT-2B",
        "group": "resource",
        "lat": 68.66553776578675,
        "lon": -131.78286496289408,
        "alt_km": 617.6016118491989,
        "timestamp": "2025-12-04T09:47:37.179466+00:00",
        "meta_object_name": "CARTOSAT-2B",
        "meta_object_id": "2010-035A",
        "meta_epoch": "2025-12-03T23:33:19.681920",
        "meta_mean_motion": 14.78766526,
        "meta_eccentricity": 0.00128855,
        "meta_inclination": 97.7866,
        "meta_ra_of_asc_node": 27.2959,
        "meta_arg_of_pericenter": 103.2976,
        "meta_mean_anomaly": 256.9674,
        "meta_ephemeris_type": 0,
        "meta_classification_type": "U",
        "meta_norad_cat_id": 36795,
        "meta_element_set_no": 999,
        "meta_rev_at_epoch": 83100,
        "meta_bstar": 0.00017292735,
        "meta_mean_motion_dot": 1.222e-05,
        "meta_mean_motion_ddot": 0,
        "tle_line1": "1 36795U 10035A   25337.98147780  .00001222  00000+0  17293-3 0  9994",
        "tle_line2": "2 36795  97.7866  27.2959 0012885 103.2976 256.9674 14.78766526831004"
      },
      "geometry": {
        "type": "Point",
        "coordinates": [
          -131.78286496289408,
          68.66553776578675
        ]
      }
    },
    {
      "type": "Feature",
      "properties": {
        "norad_id": 36834,
        "name": "YAOGAN-10",
        "group": "resource",
        "lat": 15.544781582638155,
        "lon": -3.926603714759346,
        "alt_km": 615.3575187915203,
        "timestamp": "2025-12-04T09:47:37.179476+00:00",
        "meta_object_name": "YAOGAN-10",
        "meta_object_id": "2010-038A",
        "meta_epoch": "2025-12-03T19:57:32.552064",
        "meta_mean_motion": 14.84554289,
        "meta_eccentricity": 0.00015101,
        "meta_inclination": 97.915,
        "meta_ra_of_asc_node": 357.7191,
        "meta_arg_of_pericenter": 84.468,
        "meta_mean_anomaly": 92.504,
        "meta_ephemeris_type": 0,
        "meta_classification_type": "U",
        "meta_norad_cat_id": 36834,
        "meta_element_set_no": 999,
        "meta_rev_at_epoch": 82821,
        "meta_bstar": 0.00024459282,
        "meta_mean_motion_dot": 2.01e-05,
        "meta_mean_motion_ddot": 0,
        "tle_line1": "1 36834U 10038A   25337.83162676  .00002010  00000+0  24459-3 0  9994",
        "tle_line2": "2 36834  97.9150 357.7191 0001510  84.4680  92.5040 14.84554289828218"
      },
      "geometry": {
        "type": "Point",
        "coordinates": [
          -3.926603714759346,
          15.544781582638155
        ]
      }
    },
    {
      "type": "Feature",
      "properties": {
        "norad_id": 37216,
        "name": "COSMO-SKYMED 4",
        "group": "resource",
        "lat": 11.335143984971479,
        "lon": 158.26560898782367,
        "alt_km": 623.6446494017655,
        "timestamp": "2025-12-04T09:47:37.179486+00:00",
        "meta_object_name": "COSMO-SKYMED 4",
        "meta_object_id": "2010-060A",
        "meta_epoch": "2025-12-03T22:24:01.371744",
        "meta_mean_motion": 14.82151203,
        "meta_eccentricity": 0.00013953,
        "meta_inclination": 97.8808,
        "meta_ra_of_asc_node": 159.3893,
        "meta_arg_of_pericenter": 83.5232,
        "meta_mean_anomaly": 276.614,
        "meta_ephemeris_type": 0,
        "meta_classification_type": "U",
        "meta_norad_cat_id": 37216,
        "meta_element_set_no": 999,
        "meta_rev_at_epoch": 81564,
        "meta_bstar": 0.00013009198,
        "meta_mean_motion_dot": 9.84e-06,
        "meta_mean_motion_ddot": 0,
        "tle_line1": "1 37216U 10060A   25337.93334921  .00000984  00000+0  13009-3 0  9996",
        "tle_line2": "2 37216  97.8808 159.3893 0001395  83.5232 276.6140 14.82151203815647"
      },
      "geometry": {
        "type": "Point",
        "coordinates": [
          158.26560898782367,
          11.335143984971479
        ]
      }
    },
    {
      "type": "Feature",
      "properties": {
        "norad_id": 37387,
        "name": "RESOURCESAT-2",
        "group": "resource",
        "lat": -10.069002823555778,
        "lon": 43.571081563221654,
        "alt_km": 822.7619225881581,
        "timestamp": "2025-12-04T09:47:37.179496+00:00",
        "meta_object_name": "RESOURCESAT-2",
        "meta_object_id": "2011-015A",
        "meta_epoch": "2025-12-04T03:05:04.763040",
        "meta_mean_motion": 14.21591898,
        "meta_eccentricity": 0.000676,
        "meta_inclination": 98.7889,
        "meta_ra_of_asc_node": 41.7186,
        "meta_arg_of_pericenter": 64.7839,
        "meta_mean_anomaly": 295.4038,
        "meta_ephemeris_type": 0,
        "meta_classification_type": "U",
        "meta_norad_cat_id": 37387,
        "meta_element_set_no": 999,
        "meta_rev_at_epoch": 75846,
        "meta_bstar": 0.00016932,
        "meta_mean_motion_dot": 3.27e-06,
        "meta_mean_motion_ddot": 0,
        "tle_line1": "1 37387U 11015A   25338.12852735  .00000327  00000+0  16932-3 0  9995",
        "tle_line2": "2 37387  98.7889  41.7186 0006760  64.7839 295.4038 14.21591898758461"
      },
      "geometry": {
        "type": "Point",
        "coordinates": [
          43.571081563221654,
          -10.069002823555778
        ]
      }
    }
  ]
}